ONEWEB-0371             
1 49297U 21090U   26201.24598602  .00000032  00000+0  46673-4 0  9994
2 49297  87.9193 298.3858 0002090 100.1989 259.9380 13.19725351230819
ONEWEB-0372             
1 49298U 21090V   26201.19213813  .00000043  00000+0  72914-4 0  9996
2 49298  87.9182 267.8654 0002068  98.7272 261.4096 13.20769962234190
ONEWEB-0373             
1 49299U 21090W   26201.14176312 -.00000078  00000+0 -22374-3 0  9998
2 49299  87.9177 267.8751 0002028  95.5221 264.6143 13.20771052235370
ONEWEB-0374             
1 49300U 21090X   26201.15384631  .00000156  00000+0  38544-3 0  9998
2 49300  87.8967 283.1303 0001476  91.9150 268.2149 13.14502531231896
ONEWEB-0375             
1 49301U 21090Y   26201.12998120 -.00000107  00000+0 -29399-3 0  9996
2 49301  87.9180 267.8696 0001574  87.0894 273.0420 13.20771478234871
ONEWEB-0376             
1 49302U 21090Z   26201.24439742 -.00000128  00000+0 -35192-3 0  9991
2 49302  87.9191 298.3860 0002089 105.1394 254.9970 13.19724571230813
ONEWEB-0377             
1 49303U 21090AA  26201.19240013  .00000027  00000+0  35276-4 0  9997
2 49303  87.9181 267.8592 0001751  95.4366 264.6967 13.20770210234878
ONEWEB-0378             
1 49304U 21090AB  26201.13686771  .00000133  00000+0  29461-3 0  9993
2 49304  87.9175 267.8736 0001918  98.3160 261.8191 13.20772610234134
ONEWEB-0379             
1 49305U 21090AC  26201.22521520  .00000254  00000+0  65044-3 0  9995
2 49305  87.8967 283.1261 0001883  99.6658 260.4685 13.14502470231907
ONEWEB-0380             
1 49306U 21090AD  26201.24124453  .00000077  00000+0  15996-3 0  9996
2 49306  87.9185 298.3897 0001950  94.9118 265.2238 13.19727035230781
ONEWEB-0381             
1 49307U 21090AE  26201.18889902 -.00000008  00000+0 -52410-4 0  9996
2 49307  87.9180 267.8644 0001812  94.2788 265.8552 13.20769999234181
ONEWEB-0382             
1 49308U 21090AF  26200.72090713 -.00000088  00000+0 -24856-3 0  9990
2 49308  87.9183 267.9517 0001745  98.3002 261.8329 13.20771867234112
ONEWEB-0383             
1 49309U 21090AG  26200.76216430  .00000213  00000+0  53967-3 0  9994
2 49309  87.8968 283.2106 0001891 102.8809 257.2532 13.14502618231870
ONEWEB-0384             
1 49310U 21090AH  26201.16304027 -.00000004  00000+0 -41510-4 0  9993
2 49310  87.9177 267.9071 0001578 102.0312 258.0998 13.20814419234182
ONEWEB-0385             
1 49311U 21090AJ  26200.94143654  .00000016  00000+0  81788-5 0  9999
2 49311  87.9177 267.9132 0001861  97.2980 262.8365 13.20770000234124
ONEWEB-0386             
1 49312U 21090AK  26201.10977333  .00000027  00000+0  35097-4 0  9991
2 49312  87.9186 267.8720 0001782  98.2461 261.8875 13.20770293234167
