{"fetched_at":"2026-07-20T18:28:52.300Z","source":"https://celestrak.org/NORAD/elements/gp.php?GROUP=oneweb&FORMAT=JSON","constellation":"oneweb","records":[{"OBJECT_NAME":"ONEWEB-0371","OBJECT_ID":"2021-090U","EPOCH":"2026-07-20T05:54:13.192128","CLASSIFICATION_TYPE":"U","MEAN_MOTION":13.19725351,"ECCENTRICITY":0.00020903,"INCLINATION":87.9193,"RA_OF_ASC_NODE":298.3858,"ARG_OF_PERICENTER":100.1989,"MEAN_ANOMALY":259.938,"EPHEMERIS_TYPE":0,"NORAD_CAT_ID":49297,"ELEMENT_SET_NO":999,"REV_AT_EPOCH":23081,"BSTAR":0.000046673073,"MEAN_MOTION_DOT":3.2e-7,"MEAN_MOTION_DDOT":0},{"OBJECT_NAME":"ONEWEB-0372","OBJECT_ID":"2021-090V","EPOCH":"2026-07-20T04:36:40.734432","CLASSIFICATION_TYPE":"U","MEAN_MOTION":13.20769962,"ECCENTRICITY":0.00020689,"INCLINATION":87.9182,"RA_OF_ASC_NODE":267.8654,"ARG_OF_PERICENTER":98.7272,"MEAN_ANOMALY":261.4096,"EPHEMERIS_TYPE":0,"NORAD_CAT_ID":49298,"ELEMENT_SET_NO":999,"REV_AT_EPOCH":23419,"BSTAR":0.000072913933,"MEAN_MOTION_DOT":4.3e-7,"MEAN_MOTION_DDOT":0},{"OBJECT_NAME":"ONEWEB-0373","OBJECT_ID":"2021-090W","EPOCH":"2026-07-20T03:24:08.333568","CLASSIFICATION_TYPE":"U","MEAN_MOTION":13.20771052,"ECCENTRICITY":0.00020286,"INCLINATION":87.9177,"RA_OF_ASC_NODE":267.8751,"ARG_OF_PERICENTER":95.5221,"MEAN_ANOMALY":264.6143,"EPHEMERIS_TYPE":0,"NORAD_CAT_ID":49299,"ELEMENT_SET_NO":999,"REV_AT_EPOCH":23537,"BSTAR":-0.00022373972,"MEAN_MOTION_DOT":-7.8e-7,"MEAN_MOTION_DDOT":0},{"OBJECT_NAME":"ONEWEB-0374","OBJECT_ID":"2021-090X","EPOCH":"2026-07-20T03:41:32.321184","CLASSIFICATION_TYPE":"U","MEAN_MOTION":13.14502531,"ECCENTRICITY":0.0001476,"INCLINATION":87.8967,"RA_OF_ASC_NODE":283.1303,"ARG_OF_PERICENTER":91.915,"MEAN_ANOMALY":268.2149,"EPHEMERIS_TYPE":0,"NORAD_CAT_ID":49300,"ELEMENT_SET_NO":999,"REV_AT_EPOCH":23189,"BSTAR":0.00038543994,"MEAN_MOTION_DOT":0.00000156,"MEAN_MOTION_DDOT":0},{"OBJECT_NAME":"ONEWEB-0375","OBJECT_ID":"2021-090Y","EPOCH":"2026-07-20T03:07:10.375680","CLASSIFICATION_TYPE":"U","MEAN_MOTION":13.20771478,"ECCENTRICITY":0.00015749,"INCLINATION":87.918,"RA_OF_ASC_NODE":267.8696,"ARG_OF_PERICENTER":87.0894,"MEAN_ANOMALY":273.042,"EPHEMERIS_TYPE":0,"NORAD_CAT_ID":49301,"ELEMENT_SET_NO":999,"REV_AT_EPOCH":23487,"BSTAR":-0.00029399249,"MEAN_MOTION_DOT":-0.00000107,"MEAN_MOTION_DDOT":0},{"OBJECT_NAME":"ONEWEB-0376","OBJECT_ID":"2021-090Z","EPOCH":"2026-07-20T05:51:55.937088","CLASSIFICATION_TYPE":"U","MEAN_MOTION":13.19724571,"ECCENTRICITY":0.00020892,"INCLINATION":87.9191,"RA_OF_ASC_NODE":298.386,"ARG_OF_PERICENTER":105.1394,"MEAN_ANOMALY":254.997,"EPHEMERIS_TYPE":0,"NORAD_CAT_ID":49302,"ELEMENT_SET_NO":999,"REV_AT_EPOCH":23081,"BSTAR":-0.00035192136,"MEAN_MOTION_DOT":-0.00000128,"MEAN_MOTION_DDOT":0},{"OBJECT_NAME":"ONEWEB-0377","OBJECT_ID":"2021-090AA","EPOCH":"2026-07-20T04:37:03.371232","CLASSIFICATION_TYPE":"U","MEAN_MOTION":13.2077021,"ECCENTRICITY":0.00017512,"INCLINATION":87.9181,"RA_OF_ASC_NODE":267.8592,"ARG_OF_PERICENTER":95.4366,"MEAN_ANOMALY":264.6967,"EPHEMERIS_TYPE":0,"NORAD_CAT_ID":49303,"ELEMENT_SET_NO":999,"REV_AT_EPOCH":23487,"BSTAR":0.00003527638,"MEAN_MOTION_DOT":2.7e-7,"MEAN_MOTION_DDOT":0},{"OBJECT_NAME":"ONEWEB-0378","OBJECT_ID":"2021-090AB","EPOCH":"2026-07-20T03:17:05.370144","CLASSIFICATION_TYPE":"U","MEAN_MOTION":13.2077261,"ECCENTRICITY":0.00019185,"INCLINATION":87.9175,"RA_OF_ASC_NODE":267.8736,"ARG_OF_PERICENTER":98.316,"MEAN_ANOMALY":261.8191,"EPHEMERIS_TYPE":0,"NORAD_CAT_ID":49304,"ELEMENT_SET_NO":999,"REV_AT_EPOCH":23413,"BSTAR":0.00029460512,"MEAN_MOTION_DOT":0.00000133,"MEAN_MOTION_DDOT":0},{"OBJECT_NAME":"ONEWEB-0379","OBJECT_ID":"2021-090AC","EPOCH":"2026-07-20T05:24:18.593280","CLASSIFICATION_TYPE":"U","MEAN_MOTION":13.1450247,"ECCENTRICITY":0.00018839,"INCLINATION":87.8967,"RA_OF_ASC_NODE":283.1261,"ARG_OF_PERICENTER":99.6658,"MEAN_ANOMALY":260.4685,"EPHEMERIS_TYPE":0,"NORAD_CAT_ID":49305,"ELEMENT_SET_NO":999,"REV_AT_EPOCH":23190,"BSTAR":0.00065043923,"MEAN_MOTION_DOT":0.00000254,"MEAN_MOTION_DDOT":0},{"OBJECT_NAME":"ONEWEB-0380","OBJECT_ID":"2021-090AD","EPOCH":"2026-07-20T05:47:23.527392","CLASSIFICATION_TYPE":"U","MEAN_MOTION":13.19727035,"ECCENTRICITY":0.00019506,"INCLINATION":87.9185,"RA_OF_ASC_NODE":298.3897,"ARG_OF_PERICENTER":94.9118,"MEAN_ANOMALY":265.2238,"EPHEMERIS_TYPE":0,"NORAD_CAT_ID":49306,"ELEMENT_SET_NO":999,"REV_AT_EPOCH":23078,"BSTAR":0.00015996072,"MEAN_MOTION_DOT":7.7e-7,"MEAN_MOTION_DDOT":0},{"OBJECT_NAME":"ONEWEB-0381","OBJECT_ID":"2021-090AE","EPOCH":"2026-07-20T04:32:00.875328","CLASSIFICATION_TYPE":"U","MEAN_MOTION":13.20769999,"ECCENTRICITY":0.00018124,"INCLINATION":87.918,"RA_OF_ASC_NODE":267.8644,"ARG_OF_PERICENTER":94.2788,"MEAN_ANOMALY":265.8552,"EPHEMERIS_TYPE":0,"NORAD_CAT_ID":49307,"ELEMENT_SET_NO":999,"REV_AT_EPOCH":23418,"BSTAR":-0.000052410191,"MEAN_MOTION_DOT":-8e-8,"MEAN_MOTION_DDOT":0},{"OBJECT_NAME":"ONEWEB-0382","OBJECT_ID":"2021-090AF","EPOCH":"2026-07-19T17:18:06.376032","CLASSIFICATION_TYPE":"U","MEAN_MOTION":13.20771867,"ECCENTRICITY":0.00017451,"INCLINATION":87.9183,"RA_OF_ASC_NODE":267.9517,"ARG_OF_PERICENTER":98.3002,"MEAN_ANOMALY":261.8329,"EPHEMERIS_TYPE":0,"NORAD_CAT_ID":49308,"ELEMENT_SET_NO":999,"REV_AT_EPOCH":23411,"BSTAR":-0.00024855841,"MEAN_MOTION_DOT":-8.8e-7,"MEAN_MOTION_DDOT":0},{"OBJECT_NAME":"ONEWEB-0383","OBJECT_ID":"2021-090AG","EPOCH":"2026-07-19T18:17:30.995520","CLASSIFICATION_TYPE":"U","MEAN_MOTION":13.14502618,"ECCENTRICITY":0.00018916,"INCLINATION":87.8968,"RA_OF_ASC_NODE":283.2106,"ARG_OF_PERICENTER":102.8809,"MEAN_ANOMALY":257.2532,"EPHEMERIS_TYPE":0,"NORAD_CAT_ID":49309,"ELEMENT_SET_NO":999,"REV_AT_EPOCH":23187,"BSTAR":0.00053966847,"MEAN_MOTION_DOT":0.00000213,"MEAN_MOTION_DDOT":0},{"OBJECT_NAME":"ONEWEB-0384","OBJECT_ID":"2021-090AH","EPOCH":"2026-07-20T03:54:46.679328","CLASSIFICATION_TYPE":"U","MEAN_MOTION":13.20814419,"ECCENTRICITY":0.00015783,"INCLINATION":87.9177,"RA_OF_ASC_NODE":267.9071,"ARG_OF_PERICENTER":102.0312,"MEAN_ANOMALY":258.0998,"EPHEMERIS_TYPE":0,"NORAD_CAT_ID":49310,"ELEMENT_SET_NO":999,"REV_AT_EPOCH":23418,"BSTAR":-0.000041509933,"MEAN_MOTION_DOT":-4e-8,"MEAN_MOTION_DDOT":0},{"OBJECT_NAME":"ONEWEB-0385","OBJECT_ID":"2021-090AJ","EPOCH":"2026-07-19T22:35:40.117056","CLASSIFICATION_TYPE":"U","MEAN_MOTION":13.2077,"ECCENTRICITY":0.00018612,"INCLINATION":87.9177,"RA_OF_ASC_NODE":267.9132,"ARG_OF_PERICENTER":97.298,"MEAN_ANOMALY":262.8365,"EPHEMERIS_TYPE":0,"NORAD_CAT_ID":49311,"ELEMENT_SET_NO":999,"REV_AT_EPOCH":23412,"BSTAR":0.000008178787,"MEAN_MOTION_DOT":1.6e-7,"MEAN_MOTION_DDOT":0},{"OBJECT_NAME":"ONEWEB-0386","OBJECT_ID":"2021-090AK","EPOCH":"2026-07-20T02:38:04.415712","CLASSIFICATION_TYPE":"U","MEAN_MOTION":13.20770293,"ECCENTRICITY":0.00017827,"INCLINATION":87.9186,"RA_OF_ASC_NODE":267.872,"ARG_OF_PERICENTER":98.2461,"MEAN_ANOMALY":261.8875,"EPHEMERIS_TYPE":0,"NORAD_CAT_ID":49312,"ELEMENT_SET_NO":999,"REV_AT_EPOCH":23416,"BSTAR":0.000035096537,"MEAN_MOTION_DOT":2.7e-7,"MEAN_MOTION_DDOT":0}]}
